MEAN_MOTION;ECCENTRICITY;INCLINATION;RA_OF_ASC_NODE;ARG_OF_PERICENTER;MEAN_ANOMALY;BSTAR;MEAN_MOTION_DOT;MEAN_MOTION_DDOT;TYPE
12.26960488;3.84E-5;51.9992;337.933;106.8073;333.1151;-0.00023957;-1.21E-6;0;Globalstar
12.26960479;3.85E-5;51.9992;337.4216;106.2166;46.8666;-0.00023905;-1.21E-6;0;Globalstar
12.26960435;3.91E-5;51.9991;335.1468;105.5303;335.2456;-0.00022186;-1.19E-6;0;Globalstar
12.2696039;3.84E-5;51.9991;334.4223;104.1572;20.2899;-0.00021351;-1.18E-6;0;Globalstar
12.26960369;3.88E-5;51.999;332.3618;103.2469;336.4574;-0.00019869;-1.16E-6;0;Globalstar
12.26960358;3.89E-5;51.999;331.3881;102.0632;47.7301;-0.00017624;-1.13E-6;0;Globalstar
12.26960316;3.92E-5;51.9989;329.5459;102.6672;23.9062;-0.00015976;-1.12E-6;0;Globalstar
12.26960303;3.94E-5;51.9988;328.8302;101.8451;54.7221;-0.00016013;-1.12E-6;0;Globalstar
12.26960311;3.96E-5;51.9987;327.2879;102.1137;286.1818;-0.00012968;-1.08E-6;0;Globalstar
12.26960312;3.85E-5;51.9985;324.2607;101.4284;301.2712;-3.468E-5;-9.7E-7;0;Globalstar
12.26960321;3.92E-5;51.9985;323.7528;101.7458;8.6091;-2.5222E-5;-9.6E-7;0;Globalstar
12.26960453;3.88E-5;51.9983;321.2217;102.4412;333.0192;0.00012244;-8.0E-7;0;Globalstar
12.26960522;4.28E-5;51.9981;320.9852;102.4046;340.1677;0.00020814;-7.0E-7;0;Globalstar
12.26960682;4.36E-5;51.9979;318.2017;101.9121;337.2965;0.00033406;-5.6E-7;0;Globalstar
12.26960693;4.38E-5;51.9979;317.9558;101.7872;358.7474;0.00034642;-5.4E-7;0;Globalstar
12.26960775;4.53E-5;51.9977;315.1697;102.8499;358.2063;0.00035523;-5.3E-7;0;Globalstar
12.26960817;4.59E-5;51.9976;314.4402;102.7431;49.6264;0.00036597;-5.2E-7;0;Globalstar
12.26960887;4.61E-5;51.9975;312.6297;103.7051;336.2723;0.00036079;-5.3E-7;0;Globalstar
12.26960945;4.66E-5;51.9973;309.8443;104.0977;335.1691;0.00029369;-6.0E-7;0;Globalstar
12.26960938;4.66E-5;51.9973;309.6216;104.1349;320.579;0.0002863;-6.1E-7;0;Globalstar
12.26961001;4.77E-5;51.9971;307.0589;105.8181;332.8028;0.00023714;-6.7E-7;0;Globalstar
12.26960985;4.85E-5;51.997;306.3144;106.2057;46.9761;0.00019356;-7.2E-7;0;Globalstar
12.26961016;4.9E-5;51.9968;303.7916;106.9761;358.2686;0.0001831;-7.3E-7;0;Globalstar
12.26961033;4.91E-5;51.9968;303.2866;106.9139;61.3824;0.00020201;-7.1E-7;0;Globalstar
12.26960978;4.94E-5;51.9966;301.0076;108.4923;353.754;0.00012367;-8.0E-7;0;Globalstar
12.26960997;4.94E-5;51.9966;300.7463;108.1665;39.2173;0.00015133;-7.6E-7;0;Globalstar
12.26961035;4.74E-5;51.9964;298.2224;106.6289;354.4842;0.00023606;-6.7E-7;0;Globalstar
12.2696108;4.79E-5;51.9963;295.4364;107.645;353.5026;0.00029451;-6.0E-7;0;Globalstar
12.26961105;4.81E-5;51.9963;294.7071;107.4383;44.6486;0.00031392;-5.8E-7;0;Globalstar
12.26961213;4.77E-5;51.9962;292.4238;108.0565;344.5543;0.00040238;-4.8E-7;0;Globalstar
12.26961316;4.72E-5;51.9961;289.8886;108.2346;315.5675;0.00040457;-4.8E-7;0;Globalstar
12.26961416;4.71E-5;51.996;286.8423;108.6136;358.9061;0.00034739;-5.4E-7;0;Globalstar
12.26961437;4.66E-5;51.996;285.0437;108.8242;267.67;0.00025921;-6.4E-7;0;Globalstar
12.26961444;4.6E-5;51.9959;283.5527;108.1543;60.2314;0.00020922;-7.0E-7;0;Globalstar
12.26961469;4.54E-5;51.9958;281.2736;108.5097;353.9963;0.00014248;-7.7E-7;0;Globalstar
12.26961569;4.6E-5;51.9958;279.4693;110.2811;270.1524;0.00013954;-7.8E-7;0;Globalstar
12.26961632;4.61E-5;51.9958;278.4891;111.0406;349.3709;0.00014935;-7.7E-7;0;Globalstar
12.26961657;4.56E-5;51.9958;276.6873;110.8873;263.5673;0.00013735;-7.8E-7;0;Globalstar
12.26961837;4.69E-5;51.9958;275.475;117.2302;337.1213;0.00023089;-6.7E-7;0;Globalstar
12.26961853;4.69E-5;51.9958;275.196;117.4764;49.532;0.0002392;-6.6E-7;0;Globalstar
12.26961961;4.6E-5;51.9957;272.4403;120.7002;359.4576;0.00026038;-6.4E-7;0;Globalstar
12.26961977;4.61E-5;51.9958;272.1897;120.8342;28.0853;0.00026069;-6.4E-7;0;Globalstar
12.26962012;4.56E-5;51.9958;270.3779;122.6875;315.6982;0.00022555;-6.8E-7;0;Globalstar
12.26962031;4.48E-5;51.9957;268.0894;125.7148;261.2449;0.00018833;-7.2E-7;0;Globalstar
12.26962018;4.46E-5;51.9957;267.1091;127.5813;339.459;0.00015862;-7.6E-7;0;Globalstar
12.26962012;4.41E-5;51.9958;265.3053;130.6261;253.4537;0.00013468;-7.8E-7;0;Globalstar
12.2696203;4.34E-5;51.9958;262.52;134.8701;248.2109;0.00016815;-7.5E-7;0;Globalstar
12.26961787;4.27E-5;51.9958;261.5402;132.0225;330.1457;-1.3013E-5;-9.5E-7;0;Globalstar
12.26961675;4.2E-5;51.9958;259.4925;136.0408;261.3709;-0.00011137;-1.06E-6;0;Globalstar
12.26961645;3.98E-5;51.9961;258.7556;138.8931;321.7233;-0.00021698;-1.18E-6;0;Globalstar
12.26961529;3.88E-5;51.9961;256.48;139.3594;250.0492;-0.00026763;-1.24E-6;0;Globalstar
12.26961529;3.83E-5;51.9962;255.4914;138.5215;343.9727;-0.00027674;-1.25E-6;0;Globalstar
12.26961443;3.71E-5;51.9962;252.9576;140.7686;310.8579;-0.00029194;-1.27E-6;0;Globalstar
12.26961439;3.73E-5;51.9962;252.7073;140.9349;338.7784;-0.00029281;-1.27E-6;0;Globalstar
12.26961361;3.66E-5;51.9962;250.6443;141.8772;296.9502;-0.00029631;-1.27E-6;0;Globalstar
12.26961321;3.55E-5;51.9963;247.106;140.5922;25.0975;-0.00021025;-1.17E-6;0;Globalstar
12.2696127;3.41E-5;51.9964;244.0807;142.4713;34.5102;-0.00015178;-1.11E-6;0;Globalstar
12.26961358;3.32E-5;51.9964;241.8074;143.727;318.5135;-2.2181E-5;-9.6E-7;0;Globalstar
12.26961443;3.2E-5;51.9962;238.5358;146.977;348.4703;5.9012E-5;-8.7E-7;0;Globalstar
12.26961436;3.18E-5;51.9962;238.3332;147.0903;302.4335;5.1518E-5;-8.8E-7;0;Globalstar
12.2696144;2.97E-5;51.9962;235.507;151.1951;1.1063;0.00010162;-8.2E-7;0;Globalstar
12.2696144;2.97E-5;51.9962;235.507;151.1951;1.1063;0.00010162;-8.2E-7;0;Globalstar
12.26961465;2.82E-5;51.9962;232.7236;156.6593;351.8932;0.00015248;-7.6E-7;0;Globalstar
12.26961438;2.73E-5;51.9963;230.9117;159.2745;279.035;0.0001196;-8.0E-7;0;Globalstar
12.26961396;2.57E-5;51.9964;228.1098;162.8768;300.4652;6.5789E-5;-8.6E-7;0;Globalstar
12.26961429;2.52E-5;51.9966;227.6441;165.1161;300.9735;-1.7428E-5;-9.5E-7;0;Globalstar
12.269614;2.41E-5;51.9967;225.3423;168.7769;266.9064;-6.9545E-5;-1.01E-6;0;Globalstar
12.26961428;2.17E-5;51.9966;222.8123;173.224;225.8414;-2.5344E-5;-9.6E-7;0;Globalstar
12.26961462;2.16E-5;51.9966;222.3016;172.1077;299.051;1.2908E-5;-9.2E-7;0;Globalstar
12.26961563;2.03E-5;51.9964;219.5356;171.6703;268.6357;0.000161;-7.5E-7;0;Globalstar
12.26961594;2.0E-5;51.9964;218.56;171.7743;341.3382;0.00018084;-7.3E-7;0;Globalstar
12.26961732;1.86E-5;51.9964;216.5004;178.6377;288.6248;0.0002841;-6.1E-7;0;Globalstar
12.26961779;1.76E-5;51.9964;215.7768;178.8445;330.674;0.00030087;-5.9E-7;0;Globalstar
12.26961862;1.59E-5;51.9963;212.9923;184.9852;322.6031;0.00024926;-6.5E-7;0;Globalstar
12.26961926;1.52E-5;51.9962;210.4602;193.8505;280.6446;0.00019931;-7.1E-7;0;Globalstar
12.26961959;1.46E-5;51.9962;208.8924;199.547;186.2056;0.00017186;-7.4E-7;0;Globalstar
12.26961946;1.48E-5;51.9961;207.9122;204.3168;261.5643;0.00013728;-7.8E-7;0;Globalstar
12.2696193;1.46E-5;51.996;205.1283;216.0716;246.9241;0.00011224;-8.1E-7;0;Globalstar
12.26961897;1.44E-5;51.9959;202.3437;228.2762;233.1098;0.00011223;-8.1E-7;0;Globalstar
12.26961896;1.45E-5;51.9958;200.5416;236.3519;139.6479;0.00016026;-7.5E-7;0;Globalstar
12.26961827;1.46E-5;51.9958;199.5579;240.3353;221.1946;0.0001105;-8.1E-7;0;Globalstar
12.26961785;1.47E-5;51.9957;197.5238;249.0666;126.752;0.00010458;-8.2E-7;0;Globalstar
12.26961854;1.49E-5;51.9961;196.5457;254.2098;198.2927;-3.2076E-5;-9.7E-7;0;Globalstar
12.26961864;1.5E-5;51.996;196.0436;256.7761;254.3816;-2.4969E-5;-9.6E-7;0;Globalstar
12.2696179;1.53E-5;51.996;194.2329;261.7943;177.2275;-0.00011261;-1.06E-6;0;Globalstar
12.26961846;1.53E-5;51.9959;193.2592;266.3296;242.6793;-4.5657E-5;-9.9E-7;0;Globalstar
12.26961869;1.56E-5;51.9958;190.9772;273.3772;174.4172;-4.7972E-6;-9.4E-7;0;Globalstar
12.26961899;1.56E-5;51.9958;190.4707;275.2385;237.9206;2.8259E-5;-9.0E-7;0;Globalstar
12.26962003;1.67E-5;51.9954;187.6925;284.739;217.1159;0.00020621;-7.0E-7;0;Globalstar
12.26962205;2.0E-5;51.9952;183.3484;296.5496;101.8156;0.00025649;-6.5E-7;0;Globalstar
12.26962258;2.09E-5;51.9951;182.1499;299.0323;157.9834;0.00026752;-6.3E-7;0;Globalstar
12.2696238;2.33E-5;51.9949;179.5976;304.0057;151.0005;0.00028857;-6.1E-7;0;Globalstar
12.26962389;2.42E-5;51.9949;179.0963;305.6532;206.6628;0.00027269;-6.3E-7;0;Globalstar
12.26962522;2.74E-5;51.9948;176.5536;310.7112;184.7184;0.00031035;-5.8E-7;0;Globalstar
12.26962532;2.76E-5;51.9947;176.3124;311.1025;198.335;0.00030604;-5.9E-7;0;Globalstar
12.26962638;3.06E-5;51.9946;173.5703;315.0785;126.5199;0.00030168;-5.9E-7;0;Globalstar
12.26962689;3.19E-5;51.9945;171.9801;316.7809;70.6577;0.00028517;-6.1E-7;0;Globalstar
12.26962715;3.38E-5;51.9944;170.7393;318.8212;192.726;0.00028705;-6.1E-7;0;Globalstar
12.26962741;3.55E-5;51.9944;168.9303;320.882;115.8947;0.00025777;-6.4E-7;0;Globalstar
12.26962769;3.71E-5;51.9943;167.7293;322.7083;176.4473;0.00028333;-6.1E-7;0;Globalstar
12.26962768;3.96E-5;51.9943;165.4332;325.2308;134.4216;0.00028176;-6.2E-7;0;Globalstar
12.26962781;4.04E-5;51.9943;164.9308;325.8005;192.8229;0.0002888;-6.1E-7;0;Globalstar
12.26962795;4.32E-5;51.9943;162.1477;328.5285;185.7862;0.00029837;-6.0E-7;0;Globalstar
12.26962822;4.63E-5;51.9943;159.3629;331.1091;181.4377;0.0002893;-6.1E-7;0;Globalstar
12.26962821;4.77E-5;51.9943;157.8162;332.4405;58.5276;0.00023186;-6.7E-7;0;Globalstar
12.26962879;4.91E-5;51.9943;156.5774;334.0147;177.9031;0.00026749;-6.3E-7;0;Globalstar
12.26962937;5.1E-5;51.9942;154.0467;335.9567;140.172;0.00021783;-6.9E-7;0;Globalstar
12.2696294;5.13E-5;51.9942;153.7929;336.201;173.527;0.00020274;-7.1E-7;0;Globalstar
12.26962943;5.34E-5;51.9942;151.0371;338.9023;124.1283;5.4819E-5;-8.7E-7;0;Globalstar
12.26962943;5.34E-5;51.9942;151.0371;338.9023;124.1283;5.4819E-5;-8.7E-7;0;Globalstar
12.26962974;5.56E-5;51.9942;148.2265;341.4901;159.8299;-1.2961E-5;-9.5E-7;0;Globalstar
12.26962928;5.67E-5;51.9942;146.4121;343.0017;91.6608;-0.00012131;-1.07E-6;0;Globalstar
12.26962957;5.7E-5;51.9941;145.4423;343.6554;154.8489;-7.6587E-5;-1.02E-6;0;Globalstar
12.26962947;5.83E-5;51.9941;143.3913;345.2242;93.7545;-8.5317E-5;-1.03E-6;0;Globalstar
